QIANFAN-73              
1 63159U 25046A   25347.27195414  .00000162  00000+0  23186-3 0  9996
2 63159  88.9761 319.9674 0016517 118.1404 242.1419 13.50977358 47487
QIANFAN-74              
1 63160U 25046B   25347.25534011  .00000170  00000+0  24514-3 0  9991
2 63160  88.9762 319.8578 0001990  78.1112 282.0262 13.50979733 47547
QIANFAN-75              
1 63161U 25046C   25347.31669831  .00000187  00000+0  27048-3 0  9991
2 63161  88.9764 320.0850 0017577 121.0106 239.2775 13.50978788 47425
QIANFAN-76              
1 63162U 25046D   25347.31332635  .00000103  00000+0  14038-3 0  9994
2 63162  88.9762 320.0661 0015111 120.8415 239.4225 13.50970538 47434
QIANFAN-77              
1 63163U 25046E   25347.25911565  .00000463  00000+0  32740-3 0  9992
2 63163  88.9764 318.0743 0017002  79.6956 280.6136 13.96088968 48524
QIANFAN-78              
1 63164U 25046F   25347.28015659  .00000163  00000+0  23360-3 0  9990
2 63164  88.9762 319.9335 0016433 123.4267 236.8458 13.50977536 47505
QIANFAN-79              
1 63165U 25046G   25347.30881801  .00000156  00000+0  22192-3 0  9998
2 63165  88.9765 320.0380 0016169 121.6886 238.5844 13.50979139 47458
QIANFAN-80              
1 63166U 25046H   25347.25127178  .00000198  00000+0  28737-3 0  9990
2 63166  88.9763 319.7508 0015052 125.3412 234.9149 13.50976888 47603
